GOES 10 [-]             
1 24786U 97019A   17346.12167430 -.00000088  00000-0  00000+0 0  9994
2 24786   9.5044  41.6305 0030418 172.7579 187.2129  0.99121352 75244
